{"type":"FeatureCollection","name":"Central Almaty publicly mapped police objects","query_bbox":[76.92,43.23,76.96,43.26],"attribution":"© OpenStreetMap contributors","license":"ODbL-1.0","license_url":"https://opendatacommons.org/licenses/odbl/1-0/","source_url":"https://overpass-api.de/api/interpreter","osm_base":"2026-10-08T18:56:51Z","retrieved_at":"2026-10-08T19:00:00.503Z","description":"Public community map tags only. Incomplete; names, positions and continued operation have not been independently verified. Area objects use approximate bounding-box centers.","features":[{"type":"Feature","id":"node/487055437","geometry":{"type":"Point","coordinates":[76.9463816,43.2533322]},"properties":{"name":"Объект полиции (OSM)","address":"","osmType":"node","osmId":487055437,"source":"OpenStreetMap · amenity=police","source_url":"https://www.openstreetmap.org/node/487055437","geometry_source":"osm:node_coordinates","center_is_approximate":false}},{"type":"Feature","id":"node/498670307","geometry":{"type":"Point","coordinates":[76.9358964,43.2306046]},"properties":{"name":"Объект полиции (OSM)","address":"","osmType":"node","osmId":498670307,"source":"OpenStreetMap · amenity=police","source_url":"https://www.openstreetmap.org/node/498670307","geometry_source":"osm:node_coordinates","center_is_approximate":false}},{"type":"Feature","id":"node/2968160392","geometry":{"type":"Point","coordinates":[76.9247474,43.2503259]},"properties":{"name":"Алмалинское РУВД","address":"","osmType":"node","osmId":2968160392,"source":"OpenStreetMap · amenity=police","source_url":"https://www.openstreetmap.org/node/2968160392","geometry_source":"osm:node_coordinates","center_is_approximate":false}},{"type":"Feature","id":"node/4432753589","geometry":{"type":"Point","coordinates":[76.9252279,43.250589]},"properties":{"name":"Миграционная полиция","address":"Карасай батыра, 109А","osmType":"node","osmId":4432753589,"source":"OpenStreetMap · amenity=police","source_url":"https://www.openstreetmap.org/node/4432753589","geometry_source":"osm:node_coordinates","center_is_approximate":false}},{"type":"Feature","id":"node/4573973196","geometry":{"type":"Point","coordinates":[76.9576056,43.2354258]},"properties":{"name":"Участковый пункт полиции","address":"","osmType":"node","osmId":4573973196,"source":"OpenStreetMap · amenity=police","source_url":"https://www.openstreetmap.org/node/4573973196","geometry_source":"osm:node_coordinates","center_is_approximate":false}},{"type":"Feature","id":"node/10962960515","geometry":{"type":"Point","coordinates":[76.9564215,43.2434308]},"properties":{"name":"Объект полиции (OSM)","address":"","osmType":"node","osmId":10962960515,"source":"OpenStreetMap · amenity=police","source_url":"https://www.openstreetmap.org/node/10962960515","geometry_source":"osm:node_coordinates","center_is_approximate":false}},{"type":"Feature","id":"node/10968506408","geometry":{"type":"Point","coordinates":[76.9438245,43.2506598]},"properties":{"name":"Объект полиции (OSM)","address":"","osmType":"node","osmId":10968506408,"source":"OpenStreetMap · amenity=police","source_url":"https://www.openstreetmap.org/node/10968506408","geometry_source":"osm:node_coordinates","center_is_approximate":false}},{"type":"Feature","id":"node/12324926171","geometry":{"type":"Point","coordinates":[76.9386001,43.2486682]},"properties":{"name":"Police Departement of Almaty Region","address":"Kabanbai Batyr St, 126","osmType":"node","osmId":12324926171,"source":"OpenStreetMap · amenity=police","source_url":"https://www.openstreetmap.org/node/12324926171","geometry_source":"osm:node_coordinates","center_is_approximate":false}},{"type":"Feature","id":"node/12738468448","geometry":{"type":"Point","coordinates":[76.9451402,43.2386451]},"properties":{"name":"Tourist Police","address":"","osmType":"node","osmId":12738468448,"source":"OpenStreetMap · amenity=police","source_url":"https://www.openstreetmap.org/node/12738468448","geometry_source":"osm:node_coordinates","center_is_approximate":false}},{"type":"Feature","id":"node/12871403203","geometry":{"type":"Point","coordinates":[76.9275368,43.2431068]},"properties":{"name":"Участковый пункт полиции № 17","address":"","osmType":"node","osmId":12871403203,"source":"OpenStreetMap · amenity=police","source_url":"https://www.openstreetmap.org/node/12871403203","geometry_source":"osm:node_coordinates","center_is_approximate":false}},{"type":"Feature","id":"node/13142562459","geometry":{"type":"Point","coordinates":[76.9372186,43.2496067]},"properties":{"name":"УП полиции на метрополитене департамента полиции г.Алматы","address":"","osmType":"node","osmId":13142562459,"source":"OpenStreetMap · amenity=police","source_url":"https://www.openstreetmap.org/node/13142562459","geometry_source":"osm:node_coordinates","center_is_approximate":false}},{"type":"Feature","id":"node/13142562460","geometry":{"type":"Point","coordinates":[76.9377838,43.2493227]},"properties":{"name":"Южное региональное ВСУ","address":"","osmType":"node","osmId":13142562460,"source":"OpenStreetMap · amenity=police","source_url":"https://www.openstreetmap.org/node/13142562460","geometry_source":"osm:node_coordinates","center_is_approximate":false}},{"type":"Feature","id":"node/13366673808","geometry":{"type":"Point","coordinates":[76.9567552,43.25912]},"properties":{"name":"Объект полиции (OSM)","address":"","osmType":"node","osmId":13366673808,"source":"OpenStreetMap · amenity=police","source_url":"https://www.openstreetmap.org/node/13366673808","geometry_source":"osm:node_coordinates","center_is_approximate":false}},{"type":"Feature","id":"node/13982184401","geometry":{"type":"Point","coordinates":[76.939111,43.2494006]},"properties":{"name":"УПРАВЛЕНИЕ ПОЛИЦИИ МЕДЕУСКОГО РАЙОНА ДЕПАРТАМЕНТА ПОЛИЦИИ ГОРОДА АЛМАТЫ","address":"Kabanbay Batyr Street, 93","osmType":"node","osmId":13982184401,"source":"OpenStreetMap · amenity=police","source_url":"https://www.openstreetmap.org/node/13982184401","geometry_source":"osm:node_coordinates","center_is_approximate":false}},{"type":"Feature","id":"node/14060742102","geometry":{"type":"Point","coordinates":[76.9200324,43.2340252]},"properties":{"name":"Сервисный Центр Полиции","address":"","osmType":"node","osmId":14060742102,"source":"OpenStreetMap · amenity=police","source_url":"https://www.openstreetmap.org/node/14060742102","geometry_source":"osm:node_coordinates","center_is_approximate":false}},{"type":"Feature","id":"relation/18242371","geometry":{"type":"Point","coordinates":[76.9357893,43.2295688]},"properties":{"name":"Объект полиции (OSM)","address":"","osmType":"relation","osmId":18242371,"source":"OpenStreetMap · amenity=police","source_url":"https://www.openstreetmap.org/relation/18242371","geometry_source":"osm:bounding_box_center","center_is_approximate":true}}]}
